[{"OBJECT_NAME":"STARLINK-31704","OBJECT_ID":"2024-076Y","EPOCH":"2026-03-09T22:00:01.999584","MEAN_MOTION":15.30892355,"ECCENTRICITY":0.00079744,"INCLINATION":42.9978,"RA_OF_ASC_NODE":323.2923,"ARG_OF_PERICENTER":240.5046,"MEAN_ANOMALY":200.4144,"EPHEMERIS_TYPE":0,"CLASSIFICATION_TYPE":"U","NORAD_CAT_ID":59586,"ELEMENT_SET_NO":999,"REV_AT_EPOCH":581,"BSTAR":0.0024766131,"MEAN_MOTION_DOT":0.00076042,"MEAN_MOTION_DDOT":0},{"OBJECT_NAME":"STARLINK-35496","OBJECT_ID":"2025-237A","EPOCH":"2026-03-09T07:36:02.361600","MEAN_MOTION":15.3019216,"ECCENTRICITY":0.00014829,"INCLINATION":53.1623,"RA_OF_ASC_NODE":41.3452,"ARG_OF_PERICENTER":97.7172,"MEAN_ANOMALY":262.3997,"EPHEMERIS_TYPE":0,"CLASSIFICATION_TYPE":"U","NORAD_CAT_ID":66114,"ELEMENT_SET_NO":999,"REV_AT_EPOCH":2255,"BSTAR":0.00096285388,"MEAN_MOTION_DOT":0.00028259,"MEAN_MOTION_DDOT":0}]
